COSMOS 2251 DEB         
1 35763U 93036ARH 17343.17401942  .00001420  00000-0  37660-3 0  9993
2 35763  73.8593 155.2264 0082456 242.8868 240.5973 14.47714629455615
